[{"OBJECT_NAME":"QIANFAN-103","OBJECT_ID":"2025-233N","EPOCH":"2026-03-26T12:41:10.990752","MEAN_MOTION":13.51008122,"ECCENTRICITY":0.0002259,"INCLINATION":88.9972,"RA_OF_ASC_NODE":51.5387,"ARG_OF_PERICENTER":88.0414,"MEAN_ANOMALY":272.0996,"EPHEMERIS_TYPE":0,"CLASSIFICATION_TYPE":"U","NORAD_CAT_ID":66045,"ELEMENT_SET_NO":999,"REV_AT_EPOCH":2202,"BSTAR":0.00012645,"MEAN_MOTION_DOT":9.4e-7,"MEAN_MOTION_DDOT":0},{"OBJECT_NAME":"QIANFAN-104","OBJECT_ID":"2025-233P","EPOCH":"2026-03-26T12:46:49.207008","MEAN_MOTION":13.51001519,"ECCENTRICITY":0.0002196,"INCLINATION":88.9977,"RA_OF_ASC_NODE":51.4367,"ARG_OF_PERICENTER":81.2979,"MEAN_ANOMALY":278.8421,"EPHEMERIS_TYPE":0,"CLASSIFICATION_TYPE":"U","NORAD_CAT_ID":66046,"ELEMENT_SET_NO":999,"REV_AT_EPOCH":2207,"BSTAR":0.0001283,"MEAN_MOTION_DOT":9.5e-7,"MEAN_MOTION_DDOT":0},{"OBJECT_NAME":"QIANFAN-105","OBJECT_ID":"2025-233Q","EPOCH":"2026-03-26T11:12:19.083456","MEAN_MOTION":13.51008957,"ECCENTRICITY":0.000237,"INCLINATION":88.9991,"RA_OF_ASC_NODE":51.2754,"ARG_OF_PERICENTER":85.6108,"MEAN_ANOMALY":274.5314,"EPHEMERIS_TYPE":0,"CLASSIFICATION_TYPE":"U","NORAD_CAT_ID":66047,"ELEMENT_SET_NO":999,"REV_AT_EPOCH":2217,"BSTAR":0.00010127,"MEAN_MOTION_DOT":7.7e-7,"MEAN_MOTION_DDOT":0},{"OBJECT_NAME":"QIANFAN-106","OBJECT_ID":"2025-233R","EPOCH":"2026-03-26T11:06:20.056896","MEAN_MOTION":13.51007125,"ECCENTRICITY":0.0002376,"INCLINATION":88.9959,"RA_OF_ASC_NODE":51.5147,"ARG_OF_PERICENTER":75.6527,"MEAN_ANOMALY":284.4888,"EPHEMERIS_TYPE":0,"CLASSIFICATION_TYPE":"U","NORAD_CAT_ID":66048,"ELEMENT_SET_NO":999,"REV_AT_EPOCH":2202,"BSTAR":0.00011041,"MEAN_MOTION_DOT":8.3e-7,"MEAN_MOTION_DDOT":0},{"OBJECT_NAME":"QIANFAN-107","OBJECT_ID":"2025-233S","EPOCH":"2026-03-26T11:18:16.370784","MEAN_MOTION":13.51005111,"ECCENTRICITY":0.0002242,"INCLINATION":88.9975,"RA_OF_ASC_NODE":51.5332,"ARG_OF_PERICENTER":87.2767,"MEAN_ANOMALY":272.864,"EPHEMERIS_TYPE":0,"CLASSIFICATION_TYPE":"U","NORAD_CAT_ID":66049,"ELEMENT_SET_NO":999,"REV_AT_EPOCH":2202,"BSTAR":0.00010382,"MEAN_MOTION_DOT":7.9e-7,"MEAN_MOTION_DDOT":0},{"OBJECT_NAME":"QIANFAN-108","OBJECT_ID":"2025-233T","EPOCH":"2026-03-26T11:24:09.001152","MEAN_MOTION":13.51006528,"ECCENTRICITY":0.0002331,"INCLINATION":88.9968,"RA_OF_ASC_NODE":51.5263,"ARG_OF_PERICENTER":76.3537,"MEAN_ANOMALY":283.7874,"EPHEMERIS_TYPE":0,"CLASSIFICATION_TYPE":"U","NORAD_CAT_ID":66050,"ELEMENT_SET_NO":999,"REV_AT_EPOCH":2202,"BSTAR":0.00011032,"MEAN_MOTION_DOT":8.3e-7,"MEAN_MOTION_DDOT":0}]
