QIANFAN-103             
1 66045U 25233N   26085.52859943  .00000094  00000+0  12645-3 0  9995
2 66045  88.9972  51.5387 0002259  88.0414 272.0996 13.51008122 22022
QIANFAN-104             
1 66046U 25233P   26085.53251397  .00000095  00000+0  12830-3 0  9993
2 66046  88.9977  51.4367 0002196  81.2979 278.8421 13.51001519 22071
QIANFAN-105             
1 66047U 25233Q   26085.46688754  .00000077  00000+0  10127-3 0  9994
2 66047  88.9991  51.2754 0002370  85.6108 274.5314 13.51008957 22170
QIANFAN-106             
1 66048U 25233R   26085.46273214  .00000083  00000+0  11041-3 0  9999
2 66048  88.9959  51.5147 0002376  75.6527 284.4888 13.51007125 22020
QIANFAN-107             
1 66049U 25233S   26085.47102281  .00000079  00000+0  10382-3 0  9998
2 66049  88.9975  51.5332 0002242  87.2767 272.8640 13.51005111 22022
QIANFAN-108             
1 66050U 25233T   26085.47510418  .00000083  00000+0  11032-3 0  9993
2 66050  88.9968  51.5263 0002331  76.3537 283.7874 13.51006528 22025
